[{"OBJECT_NAME":"SL-8 R/B","OBJECT_ID":"1979-089B","EPOCH":"2026-03-28T04:40:51.725568","MEAN_MOTION":14.42361715,"ECCENTRICITY":0.00167861,"INCLINATION":74.0684,"RA_OF_ASC_NODE":56.7844,"ARG_OF_PERICENTER":227.1368,"MEAN_ANOMALY":132.8379,"EPHEMERIS_TYPE":0,"CLASSIFICATION_TYPE":"U","NORAD_CAT_ID":11574,"ELEMENT_SET_NO":999,"REV_AT_EPOCH":43877,"BSTAR":0.00010953938,"MEAN_MOTION_DOT":3.36e-6,"MEAN_MOTION_DDOT":0},{"OBJECT_NAME":"SL-14 R/B","OBJECT_ID":"1980-005B","EPOCH":"2026-03-28T01:11:30.903936","MEAN_MOTION":14.90950407,"ECCENTRICITY":0.00172144,"INCLINATION":82.5114,"RA_OF_ASC_NODE":289.8165,"ARG_OF_PERICENTER":101.2203,"MEAN_ANOMALY":259.0952,"EPHEMERIS_TYPE":0,"CLASSIFICATION_TYPE":"U","NORAD_CAT_ID":11672,"ELEMENT_SET_NO":999,"REV_AT_EPOCH":47922,"BSTAR":5.3931296e-5,"MEAN_MOTION_DOT":5.59e-6,"MEAN_MOTION_DDOT":0},{"OBJECT_NAME":"SL-8 R/B","OBJECT_ID":"1981-003B","EPOCH":"2026-03-27T22:38:38.978880","MEAN_MOTION":15.11763667,"ECCENTRICITY":0.0260921,"INCLINATION":82.9336,"RA_OF_ASC_NODE":273.134,"ARG_OF_PERICENTER":115.1116,"MEAN_ANOMALY":247.7434,"EPHEMERIS_TYPE":0,"CLASSIFICATION_TYPE":"U","NORAD_CAT_ID":12139,"ELEMENT_SET_NO":999,"REV_AT_EPOCH":31743,"BSTAR":0.00059252,"MEAN_MOTION_DOT":0.00023625,"MEAN_MOTION_DDOT":0},{"OBJECT_NAME":"SL-3 R/B","OBJECT_ID":"1981-046B","EPOCH":"2026-03-28T05:03:47.876256","MEAN_MOTION":15.4243828,"ECCENTRICITY":0.00182624,"INCLINATION":81.2285,"RA_OF_ASC_NODE":267.4922,"ARG_OF_PERICENTER":316.7056,"MEAN_ANOMALY":43.2751,"EPHEMERIS_TYPE":0,"CLASSIFICATION_TYPE":"U","NORAD_CAT_ID":12465,"ELEMENT_SET_NO":999,"REV_AT_EPOCH":44128,"BSTAR":0.0002974349,"MEAN_MOTION_DOT":0.00012975,"MEAN_MOTION_DDOT":0},{"OBJECT_NAME":"SL-3 R/B","OBJECT_ID":"1981-103B","EPOCH":"2026-03-28T06:03:30.901536","MEAN_MOTION":15.21590537,"ECCENTRICITY":0.0012699,"INCLINATION":81.1605,"RA_OF_ASC_NODE":191.657,"ARG_OF_PERICENTER":219.9909,"MEAN_ANOMALY":140.0389,"EPHEMERIS_TYPE":0,"CLASSIFICATION_TYPE":"U","NORAD_CAT_ID":12904,"ELEMENT_SET_NO":999,"REV_AT_EPOCH":97605,"BSTAR":0.00025174029,"MEAN_MOTION_DOT":5.715e-5,"MEAN_MOTION_DDOT":0},{"OBJECT_NAME":"SL-3 R/B","OBJECT_ID":"1982-013B","EPOCH":"2026-03-28T04:29:43.733472","MEAN_MOTION":15.22179098,"ECCENTRICITY":0.00234756,"INCLINATION":81.174,"RA_OF_ASC_NODE":139.0894,"ARG_OF_PERICENTER":116.7165,"MEAN_ANOMALY":243.6474,"EPHEMERIS_TYPE":0,"CLASSIFICATION_TYPE":"U","NORAD_CAT_ID":13068,"ELEMENT_SET_NO":999,"REV_AT_EPOCH":40716,"BSTAR":0.0001564485,"MEAN_MOTION_DOT":3.643e-5,"MEAN_MOTION_DDOT":0},{"OBJECT_NAME":"SL-3 R/B","OBJECT_ID":"1982-039B","EPOCH":"2026-03-28T05:01:41.476512","MEAN_MOTION":15.10182067,"ECCENTRICITY":0.00286661,"INCLINATION":81.1567,"RA_OF_ASC_NODE":194.6078,"ARG_OF_PERICENTER":263.2418,"MEAN_ANOMALY":96.5545,"EPHEMERIS_TYPE":0,"CLASSIFICATION_TYPE":"U","NORAD_CAT_ID":13154,"ELEMENT_SET_NO":999,"REV_AT_EPOCH":38443,"BSTAR":0.00017237305,"MEAN_MOTION_DOT":2.863e-5,"MEAN_MOTION_DDOT":0},{"OBJECT_NAME":"SL-3 R/B","OBJECT_ID":"1982-079B","EPOCH":"2026-03-28T05:40:44.449248","MEAN_MOTION":15.25044159,"ECCENTRICITY":0.00255072,"INCLINATION":81.1485,"RA_OF_ASC_NODE":171.1784,"ARG_OF_PERICENTER":103.7667,"MEAN_ANOMALY":256.6408,"EPHEMERIS_TYPE":0,"CLASSIFICATION_TYPE":"U","NORAD_CAT_ID":13403,"ELEMENT_SET_NO":999,"REV_AT_EPOCH":38052,"BSTAR":0.00026273314,"MEAN_MOTION_DOT":6.651e-5,"MEAN_MOTION_DDOT":0},{"OBJECT_NAME":"SL-14 R/B","OBJECT_ID":"1982-092B","EPOCH":"2026-03-28T03:38:51.906624","MEAN_MOTION":14.86682469,"ECCENTRICITY":0.00190047,"INCLINATION":82.5659,"RA_OF_ASC_NODE":124.1284,"ARG_OF_PERICENTER":237.5194,"MEAN_ANOMALY":179.9998,"EPHEMERIS_TYPE":0,"CLASSIFICATION_TYPE":"U","NORAD_CAT_ID":13553,"ELEMENT_SET_NO":999,"REV_AT_EPOCH":33167,"BSTAR":4.2629701e-5,"MEAN_MOTION_DOT":4.04e-6,"MEAN_MOTION_DDOT":0},{"OBJECT_NAME":"SL-3 R/B","OBJECT_ID":"1983-010B","EPOCH":"2026-03-28T06:19:54.497280","MEAN_MOTION":15.46973076,"ECCENTRICITY":0.00160395,"INCLINATION":81.1057,"RA_OF_ASC_NODE":339.4667,"ARG_OF_PERICENTER":347.8137,"MEAN_ANOMALY":12.2718,"EPHEMERIS_TYPE":0,"CLASSIFICATION_TYPE":"U","NORAD_CAT_ID":13819,"ELEMENT_SET_NO":999,"REV_AT_EPOCH":36081,"BSTAR":0.00032549368,"MEAN_MOTION_DOT":0.00016538,"MEAN_MOTION_DDOT":0},{"OBJECT_NAME":"SL-3 R/B","OBJECT_ID":"1983-075B","EPOCH":"2026-03-28T05:19:44.452992","MEAN_MOTION":15.38843694,"ECCENTRICITY":0.00221812,"INCLINATION":97.6141,"RA_OF_ASC_NODE":92.5072,"ARG_OF_PERICENTER":158.5424,"MEAN_ANOMALY":201.6756,"EPHEMERIS_TYPE":0,"CLASSIFICATION_TYPE":"U","NORAD_CAT_ID":14208,"ELEMENT_SET_NO":999,"REV_AT_EPOCH":33300,"BSTAR":0.00032157433,"MEAN_MOTION_DOT":0.00012375,"MEAN_MOTION_DDOT":0},{"OBJECT_NAME":"COSMOS 1536","OBJECT_ID":"1984-013A","EPOCH":"2026-03-28T05:40:21.700128","MEAN_MOTION":15.24069297,"ECCENTRICITY":0.00132491,"INCLINATION":82.5415,"RA_OF_ASC_NODE":89.4056,"ARG_OF_PERICENTER":210.1146,"MEAN_ANOMALY":149.9331,"EPHEMERIS_TYPE":0,"CLASSIFICATION_TYPE":"U","NORAD_CAT_ID":14699,"ELEMENT_SET_NO":999,"REV_AT_EPOCH":27544,"BSTAR":0.00028954365,"MEAN_MOTION_DOT":7.075e-5,"MEAN_MOTION_DDOT":0},{"OBJECT_NAME":"SL-14 R/B","OBJECT_ID":"1984-027B","EPOCH":"2026-03-28T03:26:36.907008","MEAN_MOTION":14.8599549,"ECCENTRICITY":0.00164703,"INCLINATION":82.5416,"RA_OF_ASC_NODE":227.7034,"ARG_OF_PERICENTER":272.5852,"MEAN_ANOMALY":87.3479,"EPHEMERIS_TYPE":0,"CLASSIFICATION_TYPE":"U","NORAD_CAT_ID":14820,"ELEMENT_SET_NO":999,"REV_AT_EPOCH":25037,"BSTAR":6.4613579e-5,"MEAN_MOTION_DOT":5.9e-6,"MEAN_MOTION_DDOT":0},{"OBJECT_NAME":"SL-8 R/B","OBJECT_ID":"1985-006B","EPOCH":"2026-03-28T02:49:59.734272","MEAN_MOTION":14.37796154,"ECCENTRICITY":0.00177,"INCLINATION":74.045,"RA_OF_ASC_NODE":227.2359,"ARG_OF_PERICENTER":139.7979,"MEAN_ANOMALY":33.0153,"EPHEMERIS_TYPE":0,"CLASSIFICATION_TYPE":"U","NORAD_CAT_ID":15483,"ELEMENT_SET_NO":999,"REV_AT_EPOCH":15667,"BSTAR":0.00010771,"MEAN_MOTION_DOT":2.99e-6,"MEAN_MOTION_DDOT":0},{"OBJECT_NAME":"SL-12 R/B(2)","OBJECT_ID":"1985-042D","EPOCH":"2026-03-28T06:33:51.291648","MEAN_MOTION":14.21987641,"ECCENTRICITY":0.0032845,"INCLINATION":71.1085,"RA_OF_ASC_NODE":48.4634,"ARG_OF_PERICENTER":97.3516,"MEAN_ANOMALY":5.1811,"EPHEMERIS_TYPE":0,"CLASSIFICATION_TYPE":"U","NORAD_CAT_ID":15772,"ELEMENT_SET_NO":999,"REV_AT_EPOCH":11703,"BSTAR":4.6279227e-5,"MEAN_MOTION_DOT":5.5e-7,"MEAN_MOTION_DDOT":0},{"OBJECT_NAME":"SL-14 R/B","OBJECT_ID":"1985-069B","EPOCH":"2026-03-28T04:33:33.044256","MEAN_MOTION":14.86452951,"ECCENTRICITY":0.00199922,"INCLINATION":82.5305,"RA_OF_ASC_NODE":7.5416,"ARG_OF_PERICENTER":128.0967,"MEAN_ANOMALY":232.2056,"EPHEMERIS_TYPE":0,"CLASSIFICATION_TYPE":"U","NORAD_CAT_ID":15945,"ELEMENT_SET_NO":999,"REV_AT_EPOCH":17558,"BSTAR":5.8444371e-5,"MEAN_MOTION_DOT":5.43e-6,"MEAN_MOTION_DDOT":0},{"OBJECT_NAME":"SL-16 R/B","OBJECT_ID":"1985-097B","EPOCH":"2026-03-28T04:57:57.024864","MEAN_MOTION":14.16603602,"ECCENTRICITY":0.00094687,"INCLINATION":71.0008,"RA_OF_ASC_NODE":101.5683,"ARG_OF_PERICENTER":238.1697,"MEAN_ANOMALY":194.3708,"EPHEMERIS_TYPE":0,"CLASSIFICATION_TYPE":"U","NORAD_CAT_ID":16182,"ELEMENT_SET_NO":999,"REV_AT_EPOCH":8985,"BSTAR":2.380936e-6,"MEAN_MOTION_DOT":-4.3e-7,"MEAN_MOTION_DDOT":0}]
